ONEWEB-0403             
1 50483U 21132Q   25150.16815042  .00000056  00000+0  11020-3 0  9996
2 50483  87.9158  51.5686 0001996  76.1192 284.0162 13.18686099172398
ONEWEB-0404             
1 50484U 21132R   25150.55059973  .00000114  00000+0  28508-3 0  9997
2 50484  87.8834  97.3418 0002239  72.1206 288.0165 13.11416299166816
ONEWEB-0405             
1 50485U 21132S   25150.18395347  .00000039  00000+0  66644-4 0  9995
2 50485  87.9152  51.5541 0001656  73.6723 286.4592 13.18686380172801
ONEWEB-0406             
1 50486U 21132T   25150.47640152  .00000041  00000+0  72328-4 0  9994
2 50486  87.9158  51.5163 0002452  74.7404 285.3999 13.18685718172477
ONEWEB-0407             
1 50487U 21132U   25150.16656390  .00000097  00000+0  21442-3 0  9993
2 50487  87.9154  51.5638 0001788  74.7975 285.3354 13.18686688172376
ONEWEB-0409             
1 50488U 21132V   25150.39631804  .00000143  00000+0  36700-3 0  9997
2 50488  87.8826  97.3390 0002355  77.5791 282.5600 13.11416026166694
ONEWEB-0412             
1 50489U 21132W   25149.77610955  .00000038  00000+0  64566-4 0  9997
2 50489  87.9151  51.6564 0001546  74.6560 285.4743 13.18686314172408
ONEWEB-0413             
1 50490U 21132X   25150.46375145  .00000016  00000+0  78197-5 0  9998
2 50490  87.9156  51.5325 0001587  80.3354 279.7957 13.18686007172445
